[{"OBJECT_NAME":"OBJECT Q","OBJECT_ID":"2025-313Q","EPOCH":"2026-03-09T22:26:39.769728","MEAN_MOTION":15.21804409,"ECCENTRICITY":0.0014523,"INCLINATION":97.401,"RA_OF_ASC_NODE":145.1966,"ARG_OF_PERICENTER":358.4503,"MEAN_ANOMALY":1.6686,"EPHEMERIS_TYPE":0,"CLASSIFICATION_TYPE":"U","NORAD_CAT_ID":67262,"ELEMENT_SET_NO":999,"REV_AT_EPOCH":1085,"BSTAR":0.00057243676,"MEAN_MOTION_DOT":0.00012974,"MEAN_MOTION_DDOT":0},{"OBJECT_NAME":"COSMOS 397 DEB","OBJECT_ID":"1971-015F","EPOCH":"2026-03-09T14:07:56.812800","MEAN_MOTION":14.44057548,"ECCENTRICITY":0.0359355,"INCLINATION":65.7322,"RA_OF_ASC_NODE":253.6291,"ARG_OF_PERICENTER":256.9911,"MEAN_ANOMALY":99.0843,"EPHEMERIS_TYPE":0,"CLASSIFICATION_TYPE":"U","NORAD_CAT_ID":5012,"ELEMENT_SET_NO":999,"REV_AT_EPOCH":68609,"BSTAR":0.0017017,"MEAN_MOTION_DOT":0.00012865,"MEAN_MOTION_DDOT":0}]
